start=new Date('2022-06-09T00:00:00.000Z').valueOf();
sats=[{"OBJECT_NAME":"STARLINK-1887","BSTAR":"-0.00001808100000","APOAPSIS":"548.284","MEAN_ELEMENT_THEORY":"SGP4","MEAN_MOTION_DDOT":"0.0000000000000","SEMIMAJOR_AXIS":"6925.372","RCS_SIZE":"LARGE","RA_OF_ASC_NODE":"331.4291","MEAN_MOTION_DOT":"-0.00000551","EPOCH":"2022-06-08T18:27:16.270848","ELEMENT_SET_NO":"999","TLE_LINE1":"1 47170U 20088BA  22159.76893832 -.00000551  00000-0 -18081-4 0  9997","CLASSIFICATION_TYPE":"U","FILE":"3486091","PERIOD":"95.593","ARG_OF_PERICENTER":"64.3960","COUNTRY_CODE":"US","OBJECT_ID":"2020-088BA","REF_FRAME":"TEME","DECAY_DATE":null,"REV_AT_EPOCH":"8565","INCLINATION":"53.0556","OBJECT_TYPE":"PAYLOAD","EPHEMERIS_TYPE":"0","LAUNCH_DATE":"2020-11-25","GP_ID":"205642201","SITE":"AFETR","CENTER_NAME":"EARTH","TLE_LINE2":"2 47170  53.0556 331.4291 0001512  64.3960 295.7185 15.06392268 85658","NORAD_CAT_ID":"47170","TIME_SYSTEM":"UTC","MEAN_MOTION":"15.06392268","ECCENTRICITY":"0.00015120","PERIAPSIS":"546.190","MEAN_ANOMALY":"295.7185"},{"PERIAPSIS":"546.113","MEAN_ANOMALY":"302.8772","MEAN_MOTION":"15.06407014","ECCENTRICITY":"0.00015580","TIME_SYSTEM":"UTC","NORAD_CAT_ID":"47171","CENTER_NAME":"EARTH","TLE_LINE2":"2 47171  53.0551 322.8332 0001558  57.2367 302.8772 15.06407014 85452","GP_ID":"205633437","SITE":"AFETR","EPHEMERIS_TYPE":"0","LAUNCH_DATE":"2020-11-25","INCLINATION":"53.0551","OBJECT_TYPE":"PAYLOAD","DECAY_DATE":null,"REF_FRAME":"TEME","REV_AT_EPOCH":"8545","OBJECT_ID":"2020-088BB","ARG_OF_PERICENTER":"57.2367","PERIOD":"95.592","FILE":"3485745","COUNTRY_CODE":"US","CLASSIFICATION_TYPE":"U","TLE_LINE1":"1 47171U 20088BB  22159.45655194 -.00000916  00000-0 -42614-4 0  9995","MEAN_MOTION_DDOT":"0.0000000000000","ELEMENT_SET_NO":"999","RCS_SIZE":"LARGE","EPOCH":"2022-06-08T10:57:26.087616","SEMIMAJOR_AXIS":"6925.327","RA_OF_ASC_NODE":"322.8332","MEAN_MOTION_DOT":"-0.00000916","MEAN_ELEMENT_THEORY":"SGP4","APOAPSIS":"548.271","OBJECT_NAME":"STARLINK-1888","BSTAR":"-0.00004261400000"},{"REV_AT_EPOCH":"8531","REF_FRAME":"TEME","DECAY_DATE":null,"OBJECT_ID":"2020-088BD","COUNTRY_CODE":"US","PERIOD":"95.593","ARG_OF_PERICENTER":"77.8165","FILE":"3485745","CLASSIFICATION_TYPE":"U","TLE_LINE1":"1 47173U 20088BD  22159.44825464  .00002505  00000-0  18708-3 0  9995","ELEMENT_SET_NO":"999","RA_OF_ASC_NODE":"332.8812","RCS_SIZE":"LARGE","SEMIMAJOR_AXIS":"6925.386","MEAN_MOTION_DOT":"0.00002505","EPOCH":"2022-06-08T10:45:29.200896","MEAN_MOTION_DDOT":"0.0000000000000","MEAN_ELEMENT_THEORY":"SGP4","APOAPSIS":"548.340","BSTAR":"0.00018708000000","OBJECT_NAME":"STARLINK-1890","PERIAPSIS":"546.161","MEAN_ANOMALY":"282.3000","ECCENTRICITY":"0.00015730","MEAN_MOTION":"15.06387847","TIME_SYSTEM":"UTC","NORAD_CAT_ID":"47173","TLE_LINE2":"2 47173  53.0561 332.8812 0001573  77.8165 282.3000 15.06387847 85312","CENTER_NAME":"EARTH","SITE":"AFETR","GP_ID":"205634187","LAUNCH_DATE":"2020-11-25","EPHEMERIS_TYPE":"0","OBJECT_TYPE":"PAYLOAD","INCLINATION":"53.0561"},{"REV_AT_EPOCH":"8562","REF_FRAME":"TEME","DECAY_DATE":null,"OBJECT_ID":"2020-088BE","COUNTRY_CODE":"US","FILE":"3486069","ARG_OF_PERICENTER":"55.9203","PERIOD":"95.592","CLASSIFICATION_TYPE":"U","TLE_LINE1":"1 47174U 20088BE  22159.59200860  .00001213  00000-0  10035-3 0  9999","RCS_SIZE":"LARGE","SEMIMAJOR_AXIS":"6925.346","MEAN_MOTION_DOT":"0.00001213","RA_OF_ASC_NODE":"332.2257","EPOCH":"2022-06-08T14:12:29.543040","ELEMENT_SET_NO":"999","MEAN_MOTION_DDOT":"0.0000000000000","APOAPSIS":"548.535","MEAN_ELEMENT_THEORY":"SGP4","BSTAR":"0.00010035000000","OBJECT_NAME":"STARLINK-1891","MEAN_ANOMALY":"304.1967","PERIAPSIS":"545.888","ECCENTRICITY":"0.00019110","MEAN_MOTION":"15.06400734","TIME_SYSTEM":"UTC","NORAD_CAT_ID":"47174","TLE_LINE2":"2 47174  53.0537 332.2257 0001911  55.9203 304.1967 15.06400734 85629","CENTER_NAME":"EARTH","SITE":"AFETR","GP_ID":"205640968","LAUNCH_DATE":"2020-11-25","EPHEMERIS_TYPE":"0","OBJECT_TYPE":"PAYLOAD","INCLINATION":"53.0537"},{"COUNTRY_CODE":"US","PERIOD":"95.593","ARG_OF_PERICENTER":"57.0140","FILE":"3486074","CLASSIFICATION_TYPE":"U","REV_AT_EPOCH":"8563","DECAY_DATE":null,"REF_FRAME":"TEME","OBJECT_ID":"2020-088BF","MEAN_ELEMENT_THEORY":"SGP4","APOAPSIS":"548.504","BSTAR":"-0.00001230800000","OBJECT_NAME":"STARLINK-1895","TLE_LINE1":"1 47175U 20088BF  22159.72287463 -.00000465  00000-0 -12308-4 0  9995","ELEMENT_SET_NO":"999","EPOCH":"2022-06-08T17:20:56.368032","RCS_SIZE":"LARGE","SEMIMAJOR_AXIS":"6925.392","RA_OF_ASC_NODE":"311.6435","MEAN_MOTION_DOT":"-0.00000465","MEAN_MOTION_DDOT":"0.0000000000000","TIME_SYSTEM":"UTC","NORAD_CAT_ID":"47175","PERIAPSIS":"546.010","MEAN_ANOMALY":"303.1022","ECCENTRICITY":"0.00018010","MEAN_MOTION":"15.06385889","EPHEMERIS_TYPE":"0","LAUNCH_DATE":"2020-11-25","OBJECT_TYPE":"PAYLOAD","INCLINATION":"53.0572","TLE_LINE2":"2 47175  53.0572 311.6435 0001801  57.0140 303.1022 15.06385889 85634","CENTER_NAME":"EARTH","SITE":"AFETR","GP_ID":"205641025"},{"BSTAR":"0.00002030500000","OBJECT_NAME":"STARLINK-1907","MEAN_ELEMENT_THEORY":"SGP4","APOAPSIS":"548.172","ELEMENT_SET_NO":"999","SEMIMAJOR_AXIS":"6925.350","RCS_SIZE":"LARGE","MEAN_MOTION_DOT":"0.00000021","EPOCH":"2022-06-08T16:58:21.690336","RA_OF_ASC_NODE":"321.7144","MEAN_MOTION_DDOT":"0.0000000000000","TLE_LINE1":"1 47177U 20088BH  22159.70719549  .00000021  00000-0  20305-4 0  9992","CLASSIFICATION_TYPE":"U","COUNTRY_CODE":"US","PERIOD":"95.592","ARG_OF_PERICENTER":"66.7302","FILE":"3486075","OBJECT_ID":"2020-088BH","REV_AT_EPOCH":"8578","REF_FRAME":"TEME","DECAY_DATE":null,"OBJECT_TYPE":"PAYLOAD","INCLINATION":"53.0569","EPHEMERIS_TYPE":"0","LAUNCH_DATE":"2020-11-25","SITE":"AFETR","GP_ID":"205641542","TLE_LINE2":"2 47177  53.0569 321.7144 0001381  66.7302 293.3832 15.06399439 85782","CENTER_NAME":"EARTH","NORAD_CAT_ID":"47177","TIME_SYSTEM":"UTC","ECCENTRICITY":"0.00013810","MEAN_MOTION":"15.06399439","MEAN_ANOMALY":"293.3832","PERIAPSIS":"546.259"},{"TIME_SYSTEM":"UTC","NORAD_CAT_ID":"47178","MEAN_ANOMALY":"276.3791","PERIAPSIS":"546.485","ECCENTRICITY":"0.00010650","MEAN_MOTION":"15.06397019","EPHEMERIS_TYPE":"0","LAUNCH_DATE":"2020-11-25","OBJECT_TYPE":"PAYLOAD","INCLINATION":"53.0600","TLE_LINE2":"2 47178  53.0600 332.6867 0001065  83.7320 276.3791 15.06397019 85316","CENTER_NAME":"EARTH","SITE":"AFETR","GP_ID":"205633688","COUNTRY_CODE":"US","FILE":"3485745","ARG_OF_PERICENTER":"83.7320","PERIOD":"95.592","CLASSIFICATION_TYPE":"U","REV_AT_EPOCH":"8531","REF_FRAME":"TEME","DECAY_DATE":null,"OBJECT_ID":"2020-088BJ","APOAPSIS":"547.960","MEAN_ELEMENT_THEORY":"SGP4","BSTAR":"0.00009143700000","OBJECT_NAME":"STARLINK-1912","TLE_LINE1":"1 47178U 20088BJ  22159.48879641  .00001081  00000-0  91437-4 0  9999","RCS_SIZE":"LARGE","EPOCH":"2022-06-08T11:43:52.009824","SEMIMAJOR_AXIS":"6925.358","RA_OF_ASC_NODE":"332.6867","MEAN_MOTION_DOT":"0.00001081","ELEMENT_SET_NO":"999","MEAN_MOTION_DDOT":"0.0000000000000"},{"OBJECT_ID":"2020-088BK","REV_AT_EPOCH":"8518","DECAY_DATE":null,"REF_FRAME":"TEME","CLASSIFICATION_TYPE":"U","COUNTRY_CODE":"US","PERIOD":"95.592","ARG_OF_PERICENTER":"81.6979","FILE":"3485745","ELEMENT_SET_NO":"999","EPOCH":"2022-06-08T13:02:09.576960","RCS_SIZE":"LARGE","SEMIMAJOR_AXIS":"6925.346","RA_OF_ASC_NODE":"342.4396","MEAN_MOTION_DOT":"0.00000951","MEAN_MOTION_DDOT":"0.0000000000000","TLE_LINE1":"1 47179U 20088BK  22159.54316640  .00000951  00000-0  82713-4 0  9994","BSTAR":"0.00008271300000","OBJECT_NAME":"STARLINK-1913","MEAN_ELEMENT_THEORY":"SGP4","APOAPSIS":"548.193","ECCENTRICITY":"0.00014180","MEAN_MOTION":"15.06400778","MEAN_ANOMALY":"278.4171","PERIAPSIS":"546.229","NORAD_CAT_ID":"47179","TIME_SYSTEM":"UTC","SITE":"AFETR","GP_ID":"205634939","TLE_LINE2":"2 47179  53.0575 342.4396 0001418  81.6979 278.4171 15.06400778 85180","CENTER_NAME":"EARTH","OBJECT_TYPE":"PAYLOAD","INCLINATION":"53.0575","EPHEMERIS_TYPE":"0","LAUNCH_DATE":"2020-11-25"},{"INCLINATION":"53.0568","OBJECT_TYPE":"PAYLOAD","EPHEMERIS_TYPE":"0","LAUNCH_DATE":"2020-11-25","GP_ID":"205641930","SITE":"AFETR","CENTER_NAME":"EARTH","TLE_LINE2":"2 47181  53.0568 311.6845 0001544  67.9452 292.1700 15.06397474 85881","NORAD_CAT_ID":"47181","TIME_SYSTEM":"UTC","MEAN_MOTION":"15.06397474","ECCENTRICITY":"0.00015440","MEAN_ANOMALY":"292.1700","PERIAPSIS":"546.152","OBJECT_NAME":"STARLINK-1927","BSTAR":"-0.00004051200000","MEAN_ELEMENT_THEORY":"SGP4","APOAPSIS":"548.291","MEAN_MOTION_DDOT":"0.0000000000000","ELEMENT_SET_NO":"999","RA_OF_ASC_NODE":"311.6845","RCS_SIZE":"LARGE","SEMIMAJOR_AXIS":"6925.356","EPOCH":"2022-06-08T17:10:17.985216","MEAN_MOTION_DOT":"-0.00000885","TLE_LINE1":"1 47181U 20088BM  22159.71548594 -.00000885  00000-0 -40512-4 0  9990","CLASSIFICATION_TYPE":"U","PERIOD":"95.592","ARG_OF_PERICENTER":"67.9452","FILE":"3486075","COUNTRY_CODE":"US","OBJECT_ID":"2020-088BM","DECAY_DATE":null,"REF_FRAME":"TEME","REV_AT_EPOCH":"8588"},{"INCLINATION":"53.0326","OBJECT_TYPE":"PAYLOAD","LAUNCH_DATE":"2021-01-20","EPHEMERIS_TYPE":"0","GP_ID":"205640349","SITE":"AFETR","CENTER_NAME":"EARTH","TLE_LINE2":"2 47349  53.0326 318.4989 0001610  96.4702 263.6501 15.76792771 79074","NORAD_CAT_ID":"47349","TIME_SYSTEM":"UTC","MEAN_MOTION":"15.76792771","ECCENTRICITY":"0.00016100","MEAN_ANOMALY":"263.6501","PERIAPSIS":"338.455","OBJECT_NAME":"STARLINK-1952","BSTAR":"-0.00005769000000","MEAN_ELEMENT_THEORY":"SGP4","APOAPSIS":"340.618","MEAN_MOTION_DDOT":"0.0000000000000","ELEMENT_SET_NO":"999","RCS_SIZE":"LARGE","MEAN_MOTION_DOT":"-0.00010115","SEMIMAJOR_AXIS":"6717.671","EPOCH":"2022-06-08T16:26:23.638848","RA_OF_ASC_NODE":"318.4989","TLE_LINE1":"1 47349U 21005A   22159.68499582 -.00010115  00000-0 -57690-4 0  9996","CLASSIFICATION_TYPE":"U","ARG_OF_PERICENTER":"96.4702","PERIOD":"91.325","FILE":"3486031","COUNTRY_CODE":"US","OBJECT_ID":"2021-005A","REF_FRAME":"TEME","DECAY_DATE":null,"REV_AT_EPOCH":"7907"}];
